NORAD_CAT_ID,OBJECT_NAME,OBJECT_TYPE,EPOCH,MEAN_MOTION,ECCENTRICITY,INCLINATION,RA_OF_ASC_NODE,ARG_OF_PERICENTER,MEAN_ANOMALY,BSTAR,MEAN_MOTION_DOT,MEAN_MOTION_DDOT,TLE_LINE0,TLE_LINE1,TLE_LINE2,SEMIMAJOR_AXIS,PERIOD,APOGEE,PERIGEE,DECAYED
49427.0,STARLINK-3131,PAYLOAD,2023-03-16 05:18:13,15.08850757,0.0001289,53.2154,79.9324,89.6995,270.4145,0.00028789,4.298e-05,0.0,0 STARLINK-3131,1 49427U 21104V   23075.22098559  .00004298  00000-0  28789-3 0  9991,2 49427  53.2154  79.9324 0001289  89.6995 270.4145 15.08850757 75256,6917.848,95.437,540.604,538.821,0.0
49427.0,STARLINK-3131,PAYLOAD,2023-03-16 10:04:22,15.08849131,0.0001261,53.2154,79.0398,91.7198,268.3938,0.00022952,3.368e-05,0.0,0 STARLINK-3131,1 49427U 21104V   23075.41970458  .00003368  00000-0  22952-3 0  9992,2 49427  53.2154  79.0398 0001261  91.7198 268.3938 15.08849131 74199,6917.852,95.437,540.59,538.845,0.0
49427.0,STARLINK-3131,PAYLOAD,2023-03-17 06:44:23,15.08838128,0.0001319,53.2154,75.1764,83.0194,277.0948,3.5292e-06,-2.32e-06,0.0,0 STARLINK-3131,1 49427U 21104V   23076.28083155 -.00000232  00000-0  35292-5 0  9998,2 49427  53.2154  75.1764 0001319  83.0194 277.0948 15.08838128 75415,6917.886,95.438,540.664,538.839,0.0
49427.0,STARLINK-3131,PAYLOAD,2023-03-17 09:55:10,15.08839745,0.0001273,53.2149,74.5808,85.8095,274.3043,4.4677e-05,4.23e-06,0.0,0 STARLINK-3131,1 49427U 21104V   23076.41331022  .00000423  00000-0  44677-4 0  9999,2 49427  53.2149  74.5808 0001273  85.8095 274.3043 15.08839745 74343,6917.881,95.438,540.627,538.866,0.0
49427.0,STARLINK-3131,PAYLOAD,2023-03-17 16:16:42,15.08836079,0.0001295,53.2151,73.39,92.0828,268.0312,7.5022e-05,9.06e-06,0.0,0 STARLINK-3131,1 49427U 21104V   23076.67827280  .00000906  00000-0  75022-4 0  9997,2 49427  53.2151  73.3900 0001295  92.0828 268.0312 15.08836079 74384,6917.892,95.438,540.653,538.862,0.0
49427.0,STARLINK-3131,PAYLOAD,2023-03-18 09:45:56,15.08848004,0.0001181,53.2156,70.1187,83.9902,276.1225,0.00031788,4.776e-05,0.0,0 STARLINK-3131,1 49427U 21104V   23077.40690929  .00004776  00000-0  31788-3 0  9996,2 49427  53.2156  70.1187 0001181  83.9902 276.1225 15.08848004 75584,6917.856,95.437,540.538,538.904,0.0
49427.0,STARLINK-3131,PAYLOAD,2023-03-18 16:07:29,15.0883976,0.0001089,53.2144,68.9289,85.9178,274.1939,0.00012983,1.779e-05,0.0,0 STARLINK-3131,1 49427U 21104V   23077.67187116  .00001779  00000-0  12983-3 0  9990,2 49427  53.2144  68.9289 0001089  85.9178 274.1939 15.08839760 75627,6917.881,95.438,540.499,538.993,0.0
49427.0,STARLINK-3131,PAYLOAD,2023-03-19 06:25:58,15.08836622,0.0001144,53.2154,66.2543,97.296,262.8162,5.0979e-05,5.24e-06,0.0,0 STARLINK-3131,1 49427U 21104V   23078.26803542  .00000524  00000-0  50979-4 0  9999,2 49427  53.2154  66.2543 0001144  97.2960 262.8162 15.08836622 75715,6917.891,95.438,540.547,538.964,0.0
49427.0,STARLINK-3131,PAYLOAD,2023-03-19 15:58:17,15.08839843,0.0001061,53.2164,64.4707,86.4438,273.6676,0.00010348,1.359e-05,0.0,0 STARLINK-3131,1 49427U 21104V   23078.66547525  .00001359  00000-0  10348-3 0  9991,2 49427  53.2164  64.4707 0001061  86.4438 273.6676 15.08839843 74689,6917.881,95.438,540.48,539.012,0.0
49427.0,STARLINK-3131,PAYLOAD,2023-03-20 11:02:54,15.08849963,0.000112,53.2161,60.9016,87.8348,272.2773,0.00027774,4.136e-05,0.0,0 STARLINK-3131,1 49427U 21104V   23079.46035174  .00004136  00000-0  27774-3 0  9999,2 49427  53.2161  60.9016 0001120  87.8348 272.2773 15.08849963 75892,6917.85,95.437,540.49,538.94,0.0
49427.0,STARLINK-3131,PAYLOAD,2023-03-20 15:49:04,15.08832178,0.0001225,53.216,60.0069,87.8197,272.2935,-3.4534e-05,-8.37e-06,0.0,0 STARLINK-3131,1 49427U 21104V   23079.65907898 -.00000837  00000-0 -34534-4 0  9990,2 49427  53.2160  60.0069 0001225  87.8197 272.2935 15.08832178 75922,6917.904,95.438,540.617,538.922,0.0
49427.0,STARLINK-3131,PAYLOAD,2023-03-21 06:07:31,15.08853384,9.3e-05,53.2157,57.3322,87.7504,272.3595,0.00040554,6.175e-05,0.0,0 STARLINK-3131,1 49427U 21104V   23080.25523134  .00006175  00000-0  40554-3 0  9992,2 49427  53.2157  57.3322 0000930  87.7504 272.3595 15.08853384 76018,6917.839,95.437,540.348,539.061,0.0
49427.0,STARLINK-3131,PAYLOAD,2023-03-21 07:42:55,15.08854872,9.22e-05,53.2152,57.0343,89.1453,270.9644,0.00050884,7.823e-05,0.0,0 STARLINK-3131,1 49427U 21104V   23080.32147082  .00007823  00000-0  50884-3 0  9992,2 49427  53.2152  57.0343 0000922  89.1453 270.9644 15.08854872 74934,6917.835,95.437,540.338,539.062,0.0
49427.0,STARLINK-3131,PAYLOAD,2023-03-22 04:22:56,15.08845772,0.0001083,53.2155,53.1675,96.4949,263.6167,0.00023353,3.431e-05,0.0,0 STARLINK-3131,1 49427U 21104V   23081.18259514  .00003431  00000-0  23353-3 0  9993,2 49427  53.2155  53.1675 0001083  96.4949 263.6167 15.08845772 76156,6917.863,95.437,540.477,538.979,0.0
49427.0,STARLINK-3131,PAYLOAD,2023-03-22 15:30:38,15.08838959,0.0001261,53.2163,51.0866,87.0275,273.0861,0.00015307,2.149e-05,0.0,0 STARLINK-3131,1 49427U 21104V   23081.64627807  .00002149  00000-0  15307-3 0  9993,2 49427  53.2163  51.0866 0001261  87.0275 273.0861 15.08838959 76223,6917.884,95.438,540.621,538.876,0.0
49427.0,STARLINK-3131,PAYLOAD,2023-03-23 04:13:43,15.08843653,0.0001319,53.2166,48.7074,84.6849,275.4293,0.0010411,0.00016322,0.0,0 STARLINK-3131,1 49427U 21104V   23082.17619800  .00016322  00000-0  10411-2 0  9994,2 49427  53.2166  48.7074 0001319  84.6849 275.4293 15.08843653 75214,6917.869,95.437,540.647,538.822,0.0
49427.0,STARLINK-3131,PAYLOAD,2023-03-24 07:15:15,15.08940803,0.0001187,53.2161,43.6532,95.216,264.8968,0.0044677,0.00071738,0.0,0 STARLINK-3131,1 49427U 21104V   23083.30226511  .00071738  00000-0  44677-2 0  9996,2 49427  53.2161  43.6532 0001187  95.2160 264.8968 15.08940803 76474,6917.572,95.431,540.258,538.616,0.0
49427.0,STARLINK-3131,PAYLOAD,2023-03-25 03:55:16,15.08862824,7.78e-05,53.2177,39.7887,95.6554,264.4527,0.0017113,0.00027069,0.0,0 STARLINK-3131,1 49427U 21104V   23084.16338662  .00027069  00000-0  17113-2 0  9995,2 49427  53.2177  39.7887 0000778  95.6554 264.4527 15.08862824 76604,6917.811,95.436,540.214,539.137,0.0
49427.0,STARLINK-3131,PAYLOAD,2023-03-25 05:30:39,15.08862037,7.36e-05,53.2172,39.4917,93.3585,266.7492,0.0016034,0.00025338,0.0,0 STARLINK-3131,1 49427U 21104V   23084.22962597  .00025338  00000-0  16034-2 0  9990,2 49427  53.2172  39.4917 0000736  93.3585 266.7492 15.08862037 75525,6917.813,95.436,540.187,539.169,0.0
49427.0,STARLINK-3131,PAYLOAD,2023-03-26 03:46:04,15.08828937,8.21e-05,53.217,35.3287,100.6851,259.4234,0.00019877,2.876e-05,0.0,0 STARLINK-3131,1 49427U 21104V   23085.15699617  .00002876  00000-0  19877-3 0  9994,2 49427  53.2170  35.3287 0000821 100.6851 259.4234 15.08828937 76751,6917.914,95.438,540.347,539.211,0.0
49427.0,STARLINK-3131,PAYLOAD,2023-03-27 06:47:38,15.08851345,8.27e-05,53.2165,30.2721,72.3735,287.7347,0.0013103,0.00020633,0.0,0 STARLINK-3131,1 49427U 21104V   23086.28308084  .00020633  00000-0  13103-2 0  9990,2 49427  53.2165  30.2721 0000827  72.3735 287.7347 15.08851345 76921,6917.846,95.437,540.283,539.139,0.0
49427.0,STARLINK-3131,PAYLOAD,2023-03-28 05:03:01,15.08865225,0.0001086,53.2168,26.1076,85.8637,274.2479,0.0011617,0.00018262,0.0,0 STARLINK-3131,1 49427U 21104V   23087.21043759  .00018262  00000-0  11617-2 0  9992,2 49427  53.2168  26.1076 0001086  85.8637 274.2479 15.08865225 77064,6917.803,95.436,540.42,538.917,0.0
49427.0,STARLINK-3131,PAYLOAD,2023-03-28 19:21:30,15.08848845,0.0001303,53.2159,23.4325,86.2646,273.8495,0.00087128,0.00013609,0.0,0 STARLINK-3131,1 49427U 21104V   23087.80659887  .00013609  00000-0  87128-3 0  9993,2 49427  53.2159  23.4325 0001303  86.2646 273.8495 15.08848845 77150,6917.853,95.437,540.62,538.817,0.0
49427.0,STARLINK-3131,PAYLOAD,2023-03-29 04:53:48,15.08869117,0.0001086,53.2161,21.6484,72.1592,287.9518,0.0017999,0.00028496,0.0,0 STARLINK-3131,1 49427U 21104V   23088.20403623  .00028496  00000-0  17999-2 0  9991,2 49427  53.2161  21.6484 0001086  72.1592 287.9518 15.08869117 76124,6917.791,95.436,540.408,538.905,0.0
49427.0,STARLINK-3131,PAYLOAD,2023-03-30 01:33:49,15.08851165,0.000103,53.217,17.7829,79.9007,280.2101,0.0014899,0.0002351,0.0,0 STARLINK-3131,1 49427U 21104V   23089.06516003  .00023510  00000-0  14899-2 0  9991,2 49427  53.2170  17.7829 0001030  79.9007 280.2101 15.08851165 77341,6917.846,95.437,540.424,538.999,0.0
49427.0,STARLINK-3131,PAYLOAD,2023-03-30 12:41:32,15.08839945,0.0001419,53.2177,15.7021,85.6005,274.515,0.0011891,0.00018687,0.0,0 STARLINK-3131,1 49427U 21104V   23089.52884391  .00018687  00000-0  11891-2 0  9998,2 49427  53.2177  15.7021 0001419  85.6005 274.5150 15.08839945 77413,6917.881,95.438,540.727,538.764,0.0
49427.0,STARLINK-3131,PAYLOAD,2023-03-31 04:35:23,15.08844354,0.00016,53.2173,12.7264,106.3259,253.7909,0.0015185,0.00023964,0.0,0 STARLINK-3131,1 49427U 21104V   23090.19124835  .00023964  00000-0  15185-2 0  9997,2 49427  53.2173  12.7264 0001600 106.3259 253.7909 15.08844354 77511,6917.867,95.437,540.839,538.625,0.0
49427.0,STARLINK-3131,PAYLOAD,2023-03-31 18:53:52,15.08850496,0.0001812,53.217,10.0501,102.1609,257.9586,0.0008405,0.00013118,0.0,0 STARLINK-3131,1 49427U 21104V   23090.78740839  .00013118  00000-0  84050-3 0  9998,2 49427  53.2170  10.0501 0001812 102.1609 257.9586 15.08850496 77602,6917.848,95.437,540.967,538.46,0.0
49427.0,STARLINK-3131,PAYLOAD,2023-04-01 04:26:10,15.08871443,0.0001469,53.2177,8.268,108.5214,251.5938,0.0011568,0.00018186,0.0,0 STARLINK-3131,1 49427U 21104V   23091.18484076  .00018186  00000-0  11568-2 0  9994,2 49427  53.2177   8.2680 0001469 108.5214 251.5938 15.08871443 77668,6917.784,95.436,540.666,538.633,0.0
49427.0,STARLINK-3131,PAYLOAD,2023-04-02 04:16:58,15.0883929,0.0001304,53.2171,3.8066,87.2708,272.8433,0.00031594,4.744e-05,0.0,0 STARLINK-3131,1 49427U 21104V   23092.17845145  .00004744  00000-0  31594-3 0  9999,2 49427  53.2171   3.8066 0001304  87.2708 272.8433 15.08839290 77817,6917.883,95.438,540.65,538.845,0.0
